DMSP 5D-3 F16 (USA 172) 
1 28054U 03048A   26177.72544456  .00000019  00000+0  33556-4 0  9999
2 28054  98.9887 201.6168 0008090 116.2924   2.9113 14.14483680170830
METEOSAT-9 (MSG-2)      
1 28912U 05049B   26177.74595801  .00000126  00000+0  00000+0 0  9999
2 28912   9.3825  54.0746 0001990 356.9761 178.0964  1.00277588  7092
DMSP 5D-3 F17 (USA 191) 
1 29522U 06050A   26177.71571781  .00000043  00000+0  44338-4 0  9993
2 29522  98.7378 184.0908 0010797  34.4817 325.7055 14.14994015 13778
FENGYUN 3A              
1 32958U 08026A   26177.70357226  .00000060  00000+0  48929-4 0  9999
2 32958  98.6884 118.3589 0009867  99.1616 261.0677 14.19573029936759
GOES 14                 
1 35491U 09033A   26177.69264211 -.00000313  00000+0  00000+0 0  9997
2 35491   1.7147  82.9383 0002247  18.8457 198.6659  1.00108319  6682
DMSP 5D-3 F18 (USA 210) 
1 35951U 09057A   26177.68771869  .00000217  00000+0  13565-3 0  9991
2 35951  98.9041 158.4363 0010192 219.6637 140.3792 14.14901861860930
EWS-G2 (GOES 15)        
1 36411U 10008A   26177.67824023  .00000031  00000+0  00000+0 0  9991
2 36411   1.3034  82.7227 0005325  43.0608  96.7372  1.00268061 59734
COMS 1                  
1 36744U 10032A   26177.74396469  .00000045  00000+0  00000+0 0  9998
2 36744   4.8292  75.2461 0011925  12.8575 129.9246  0.99166612 51180
FENGYUN 3B              
1 37214U 10059A   26177.71887926  .00000224  00000+0  13917-3 0  9994
2 37214  98.9620 223.7740 0022430 157.0638 312.5589 14.14843168808772
SUOMI NPP               
1 37849U 11061A   26177.57421232  .00000052  00000+0  45501-4 0  9994
2 37849  98.7954 118.3862 0000994 339.6843  20.4293 14.19519172759777
METEOSAT-10 (MSG-3)     
1 38552U 12035B   26177.30926316  .00000000  00000+0  00000+0 0  9995
2 38552   4.6930  60.9813 0001742   8.4001 316.5762  1.00268518 50940
METOP-B                 
1 38771U 12049A   26177.69241264  .00000086  00000+0  58999-4 0  9996
2 38771  98.6500 229.0018 0001640 351.4215   8.6934 14.21441705714618
INSAT-3D                
1 39216U 13038B   26177.69125544 -.00000329  00000+0  00000+0 0  9998
2 39216   1.9505  82.4325 0001147   1.8439 208.9084  1.00271905 47170
FENGYUN 3C              
1 39260U 13052A   26177.72607514  .00000064  00000+0  53872-4 0  9994
2 39260  98.4983 151.1630 0014682   0.9101 359.2098 14.15757085659911
METEOR-M 2              
1 40069U 14037A   26177.78902971 -.00000083  00000+0 -18585-4 0  9993
2 40069  98.5112 153.1870 0006308  20.2423 339.9004 14.21463000620683
HIMAWARI-8              
1 40267U 14060A   26177.62224428 -.00000263  00000+0  00000+0 0  9993
2 40267   0.0134 311.9313 0001216 127.0673 200.4040  1.00278383 42857
FENGYUN 2G              
1 40367U 14090A   26177.61413160 -.00000296  00000+0  00000+0 0  9995
2 40367   5.6624  72.7076 0003629 150.3017  12.4626  1.00269217 42095
METEOSAT-11 (MSG-4)     
1 40732U 15034A   26177.66751574  .00000070  00000+0  00000+0 0  9998
2 40732   3.2243  71.0507 0002249 347.7124 105.7615  1.00266035  7316
ELEKTRO-L 2             
1 41105U 15074A   26176.94987031 -.00000113  00000+0  00000+0 0  9995
2 41105   6.7170  70.4166 0000727 286.6211 244.4527  1.00271163 38594
SENTINEL-3A             
1 41335U 16011A   26177.75423110  .00000085  00000+0  53149-4 0  9999
2 41335  98.6246 245.0004 0001437  96.8596 263.2748 14.26735047539420
INSAT-3DR               
1 41752U 16054A   26177.68023358 -.00000066  00000+0  00000+0 0  9994
2 41752   0.1299  86.1996 0010056 186.8884 320.5680  1.00272412 35917
HIMAWARI-9              
1 41836U 16064A   26177.62224428 -.00000264  00000+0  00000+0 0  9993
2 41836   0.0175  42.6681 0001148  69.6993 167.1449  1.00271130 35308
GOES 16                 
1 41866U 16071A   26177.57357477 -.00000080  00000+0  00000+0 0  9995
2 41866   0.3649  85.5362 0000562   6.0774 284.8738  1.00272069 35190
FENGYUN 4A              
1 41882U 16077A   26177.54757616 -.00000348  00000+0  00000+0 0  9992
2 41882   2.3469  80.1884 0008229 152.1316   3.0696  1.00264621 35024
CYGFM05                 
1 41884U 16078A   26177.47730452  .00020719  00000+0  27679-3 0  9994
2 41884  34.9552 199.0543 0008073 235.8683 124.1276 15.57045201530202
CYGFM04                 
1 41885U 16078B   26177.35485382  .00031863  00000+0  35163-3 0  9990
2 41885  34.9304 167.0897 0007286 271.4419  88.5471 15.61992878530434
CYGFM02                 
1 41886U 16078C   26177.33776846  .00037721  00000+0  36821-3 0  9998
2 41886  34.9385 161.4685 0008273 273.4268  86.5512 15.65065545530607
CYGFM01                 
1 41887U 16078D   26177.39784162  .00023434  00000+0  30491-3 0  9998
2 41887  34.9382 200.5628 0007851 229.8106 130.1932 15.57732603530142
CYGFM08                 
1 41888U 16078E   26177.40537001  .00028134  00000+0  32942-3 0  9994
2 41888  34.9412 179.8462 0009154 258.1098 101.8601 15.60462405530416
CYGFM07                 
1 41890U 16078G   26177.36394641  .00028988  00000+0  33828-3 0  9994
2 41890  34.9427 168.4558 0007677 271.2231  88.7615 15.60561439530435
CYGFM03                 
1 41891U 16078H   26177.39896616  .00028542  00000+0  33322-3 0  9992
2 41891  34.9382 170.1571 0007315 260.2908  99.6991 15.60555950530416
